H1 CPF 01  gfz 2021 01 28 13  5282 terrasarx 
H2 0702601  6201 31698    2021 01 28 12 59 42 2021 02 02 00 00 42   120 1 1  0 0 0
H9
10 0 59246  65502.000000  0    4959479.492    399693.491  -4772032.543
10 0 59246  65622.000000  0    5548325.638    234601.945  -4084540.102
10 0 59246  65742.000000  0    6037616.347     55994.413  -3325466.609
10 0 59246  65862.000000  0    6418532.094   -131202.558  -2508053.195
10 0 59246  65982.000000  0    6684221.497   -321769.221  -1646596.944
10 0 59246  66102.000000  0    6829937.166   -510319.902   -756200.382
10 0 59246  66222.000000  0    6853131.119   -691435.608    147496.459
10 0 59246  66342.000000  0    6753507.893   -859799.572   1048596.786
10 0 59246  66462.000000  0    6533032.203  -1010331.854   1931234.876
10 0 59246  66582.000000  0    6195891.738  -1138319.441   2779865.059
10 0 59246  66702.000000  0    5748412.597  -1239538.004   3579544.204
10 0 59246  66822.000000  0    5198934.097  -1310362.654   4316200.354
10 0 59246  66942.000000  0    4557644.189  -1347865.697   4976884.063
10 0 59246  67062.000000  0    3836380.455  -1349896.958   5549996.091
10 0 59246  67182.000000  0    3048402.434  -1315146.200   6025489.059
10 0 59246  67302.000000  0    2208139.461  -1243187.163   6395038.610
10 0 59246  67422.000000  0    1330921.388  -1134501.896   6652183.449
10 0 59246  67542.000000  0     432694.727   -990484.783   6792433.040
10 0 59246  67662.000000  0    -470269.031   -813425.658   6813340.194
10 0 59246  67782.000000  0   -1361667.313   -606473.493   6714539.871
10 0 59246  67902.000000  0   -2225459.196   -373580.564   6497754.948
10 0 59246  68022.000000  0   -3046152.581   -119427.782   6166768.501
10 0 59246  68142.000000  0   -3809082.732    150667.511   5727363.173
10 0 59246  68262.000000  0   -4500678.068    430859.747   5187226.440
10 0 59246  68382.000000  0   -5108707.543    714897.561   4555822.029
10 0 59246  68502.000000  0   -5622505.319    996258.383   3844229.122
10 0 59246  68622.000000  0   -6033166.480   1268292.562   3064950.732
10 0 59246  68742.000000  0   -6333710.841   1524373.883   2231695.307
10 0 59246  68862.000000  0   -6519210.727   1758052.542   1359133.657
10 0 59246  68982.000000  0   -6586879.504   1963207.633    462635.555
10 0 59246  69102.000000  0   -6536116.314   2134194.819   -442009.447
10 0 59246  69222.000000  0   -6368506.090   2265984.503  -1338879.123
10 0 59246  69342.000000  0   -6087775.919   2354287.940  -2212207.146
10 0 59246  69462.000000  0   -5699708.921   2395668.457  -3046668.405
10 0 59246  69582.000000  0   -5212016.116   2387633.942  -3827653.631
10 0 59246  69702.000000  0   -4634172.143   2328708.169  -4541526.210
10 0 59246  69822.000000  0   -3977219.955   2218480.482  -5175857.201
10 0 59246  69942.000000  0   -3253549.804   2057633.261  -5719634.259
10 0 59246  70062.000000  0   -2476659.295   1847947.062  -6163442.979
10 0 59246  70182.000000  0   -1660897.438   1592283.297  -6499619.943
10 0 59246  70302.000000  0    -821198.018   1294544.769  -6722372.615
10 0 59246  70422.000000  0      27190.261    959615.503  -6827868.378
10 0 59246  70542.000000  0     868973.949    593281.661  -6814292.776
10 0 59246  70662.000000  0    1689084.055    202133.719  -6681879.682
10 0 59246  70782.000000  0    2472940.596   -206549.602  -6432906.986
10 0 59246  70902.000000  0    3206706.312   -624932.723  -6071661.925
10 0 59246  71022.000000  0    3877528.478  -1044768.965  -5604374.174
10 0 59246  71142.000000  0    4473763.269  -1457557.999  -5039119.089
10 0 59246  71262.000000  0    4985182.529  -1854714.579  -4385690.234
10 0 59246  71382.000000  0    5403156.340  -2227744.104  -3655440.249
10 0 59246  71502.000000  0    5720808.375  -2568421.475  -2861092.553
10 0 59246  71622.000000  0    5933139.975  -2868969.753  -2016524.991
10 0 59246  71742.000000  0    6037118.560  -3122234.183  -1136529.058
10 0 59246  71862.000000  0    6031728.728  -3321847.319   -236549.571
10 0 59246  71982.000000  0    5917983.430  -3462381.252    667591.376
10 0 59246  72102.000000  0    5698895.146  -3539482.934   1559979.675
10 0 59246  72222.000000  0    5379405.668  -3549988.105   2424899.784
10 0 59246  72342.000000  0    4966275.323  -3492010.144   3247119.688
10 0 59246  72462.000000  0    4467937.691  -3365002.677   4012166.045
10 0 59246  72582.000000  0    3894323.219  -3169794.083   4706583.020
10 0 59246  72702.000000  0    3256654.716  -2908594.738   5318172.010
10 0 59246  72822.000000  0    2567219.903  -2584974.275   5836204.450
10 0 59246  72942.000000  0    1839128.774  -2203811.463   6251606.074
10 0 59246  73062.000000  0    1086059.576  -1771218.494   6557110.279
10 0 59246  73182.000000  0     321998.911  -1294440.538   6747379.142
10 0 59246  73302.000000  0    -439018.953   -781732.372   6819090.822
10 0 59246  73422.000000  0   -1183169.118   -242214.605   6770993.145
10 0 59246  73542.000000  0   -1897085.927    314288.207   6603924.026
10 0 59246  73662.000000  0   -2568102.076    877425.877   6320797.957
10 0 59246  73782.000000  0   -3184473.554   1436514.044   5926558.675
10 0 59246  73902.000000  0   -3735587.105   1980735.946   5428098.718
10 0 59246  74022.000000  0   -4212147.566   2499351.932   4834145.836
10 0 59246  74142.000000  0   -4606340.885   2981913.191   4155115.865
10 0 59246  74262.000000  0   -4911968.884   3418473.657   3402933.367
10 0 59246  74382.000000  0   -5124552.579   3799797.109   2590824.354
10 0 59246  74502.000000  0   -5241402.450   4117554.840   1733083.446
10 0 59246  74622.000000  0   -5261653.707   4364508.834    844818.110
10 0 59246  74742.000000  0   -5186263.310   4534674.378    -58324.935
10 0 59246  74862.000000  0   -5017970.424   4623458.140   -960442.982
10 0 59246  74982.000000  0   -4761221.143   4627769.903  -1845667.079
10 0 59246  75102.000000  0   -4422057.434   4546102.862  -2698450.678
10 0 59246  75222.000000  0   -4007974.995   4378580.052  -3503849.239
10 0 59246  75342.000000  0   -3527753.605   4126967.628  -4247784.768
10 0 59246  75462.000000  0   -2991265.789   3794655.400  -4917289.734
10 0 59246  75582.000000  0   -2409269.888   3386606.134  -5500726.491
10 0 59246  75702.000000  0   -1793192.226   2909276.327  -5987981.687
10 0 59246  75822.000000  0   -1154900.886   2370508.019  -6370632.033
10 0 59246  75942.000000  0    -506477.527   1779395.200  -6642077.953
10 0 59246  76062.000000  0     140008.154   1146129.035  -6797646.234
10 0 59246  76182.000000  0     772717.536    481823.402  -6834661.892
10 0 59246  76302.000000  0    1380255.271   -201676.391  -6752490.519
10 0 59246  76422.000000  0    1951870.103   -892000.756  -6552546.633
10 0 59246  76542.000000  0    2477640.276  -1576473.709  -6238271.598
10 0 59246  76662.000000  0    2948643.488  -2242339.767  -5815080.771
10 0 59246  76782.000000  0    3357108.198  -2876996.963  -5290281.214
10 0 59246  76902.000000  0    3696545.594  -3468235.584  -4672956.907
10 0 59246  77022.000000  0    3961855.929  -4004473.728  -3973820.371
10 0 59246  77142.000000  0    4149409.103  -4474985.955  -3205037.187
10 0 59246  77262.000000  0    4257099.160  -4870122.589  -2380022.528
10 0 59246  77382.000000  0    4284369.650  -5181513.935  -1513210.974
10 0 59246  77502.000000  0    4232206.795  -5402253.348   -619803.295
10 0 59246  77622.000000  0    4103101.895  -5527053.315    284504.269
10 0 59246  77742.000000  0    3900982.451  -5552371.208   1183802.369
10 0 59246  77862.000000  0    3631114.363  -5476500.640   2062257.588
10 0 59246  77982.000000  0    3299975.737  -5299624.361   2904400.516
10 0 59246  78102.000000  0    2915106.989  -5023830.119   3695405.128
10 0 59246  78222.000000  0    2484941.726  -4653087.411   4421355.519
10 0 59246  78342.000000  0    2018622.529  -4193186.662   5069493.878
10 0 59246  78462.000000  0    1525805.836  -3651642.333   5628444.766
10 0 59246  78582.000000  0    1016460.592  -3037562.487   6088412.841
10 0 59246  78702.000000  0     500664.920  -2361488.211   6441348.833
10 0 59246  78822.000000  0     -11593.611  -1635207.605   6681083.308
10 0 59246  78942.000000  0    -510610.320   -871547.871   6803428.442
10 0 59246  79062.000000  0    -987145.988    -84147.084   6806247.662
10 0 59246  79182.000000  0   -1432597.080    712789.670   6689490.387
10 0 59246  79302.000000  0   -1839150.558   1504745.919   6455192.593
10 0 59246  79422.000000  0   -2199921.096   2277157.170   6107443.629
10 0 59246  79542.000000  0   -2509068.565   3015678.629   5652319.346
10 0 59246  79662.000000  0   -2761893.816   3706453.018   5097782.112
10 0 59246  79782.000000  0   -2954912.486   4336374.299   4453548.479
10 0 59246  79902.000000  0   -3085903.969   4893342.331   3730924.047
10 0 59246  80022.000000  0   -3153934.361   5366503.002   2942607.969
10 0 59246  80142.000000  0   -3159352.457   5746467.355   2102469.426
10 0 59246  80262.000000  0   -3103759.411   6025504.323   1225300.911
10 0 59246  80382.000000  0   -2989951.877   6197703.404    326553.091
10 0 59246  80502.000000  0   -2821840.214   6259102.925   -577944.870
10 0 59246  80622.000000  0   -2604344.366   6207779.444  -1472273.802
10 0 59246  80742.000000  0   -2343268.180   6043894.459  -2340716.322
10 0 59246  80862.000000  0   -2045155.101   5769695.729  -3168040.309
10 0 59246  80982.000000  0   -1717132.228   5389479.606  -3939768.195
10 0 59246  81102.000000  0   -1366746.327   4909513.332  -4642430.670
10 0 59246  81222.000000  0   -1001795.615   4337920.091  -5263797.234
10 0 59246  81342.000000  0    -630161.156   3684531.983  -5793082.225
10 0 59246  81462.000000  0    -259640.672   2960712.043  -6221123.768
10 0 59246  81582.000000  0     102211.083   2179149.320  -6540531.182
10 0 59246  81702.000000  0     448231.408   1353634.236  -6745800.620
10 0 59246  81822.000000  0     771786.829    498816.477  -6833401.207
10 0 59246  81942.000000  0    1066896.681   -370051.227  -6801828.972
99
